{
    "data": {
        "altimeter": {
            "repr": "Q1017",
            "spoken": "one zero one seven",
            "value": 1017
        },
        "clouds": [],
        "dewpoint": {
            "repr": "M02",
            "spoken": "minus two",
            "value": -2
        },
        "flight_rules": "VFR",
        "other": [],
        "raw": "EGLL 110350Z AUTO 04009KT 9999 NCD 05/M02 Q1017",
        "remarks": "",
        "remarks_info": {
            "dewpoint_decimal": null,
            "temperature_decimal": null
        },
        "runway_visibility": [],
        "sanitized": "EGLL 110350Z 04009KT 9999 05/M02 Q1017 ",
        "station": "EGLL",
        "temperature": {
            "repr": "05",
            "spoken": "five",
            "value": 5
        },
        "time": null,
        "visibility": {
            "repr": "9999",
            "spoken": "nine nine nine nine",
            "value": 9999
        },
        "wind_direction": {
            "repr": "040",
            "spoken": "zero four zero",
            "value": 40
        },
        "wind_gust": null,
        "wind_speed": {
            "repr": "09",
            "spoken": "nine",
            "value": 9
        },
        "wind_variable_direction": [],
        "wx_codes": []
    },
    "speech": "Winds zero four zero at 9kt. Visibility one zero kilometers. Temperature five degrees Celsius. Dew point minus two degrees Celsius. Altimeter one zero one seven. Sky clear",
    "summary": "Winds NE-040 at 9kt, Vis 10km, Temp 5\u00b0C, Dew -2\u00b0C, Alt 1017 hPa, Sky clear",
    "translations": {
        "altimeter": "1017 hPa (30.03 inHg)",
        "clouds": "Sky clear",
        "dewpoint": "-2\u00b0C (28\u00b0F)",
        "remarks": {},
        "temperature": "5\u00b0C (41\u00b0F)",
        "visibility": "10km (6.2sm)",
        "wind": "NE-040 at 9kt",
        "wx_codes": ""
    }
}