{
    "created": "2021-06-07",
    "data": {
        "altimeter": {
            "repr": "Q1024",
            "spoken": "one zero two four",
            "value": 1024
        },
        "clouds": [],
        "dewpoint": {
            "repr": "13",
            "spoken": "one three",
            "value": 13
        },
        "flight_rules": "VFR",
        "other": [],
        "raw": "EGLL 070520Z AUTO 18005KT 9999 NCD 14/13 Q1024",
        "remarks": "",
        "remarks_info": null,
        "runway_visibility": [],
        "sanitized": "EGLL 070520Z 18005KT 9999 14/13 Q1024",
        "station": "EGLL",
        "temperature": {
            "repr": "14",
            "spoken": "one four",
            "value": 14
        },
        "time": {
            "dt": "2021-06-07T05:20:00+00:00",
            "repr": "070520Z"
        },
        "visibility": {
            "repr": "9999",
            "spoken": "nine nine nine nine",
            "value": 9999
        },
        "wind_direction": {
            "repr": "180",
            "spoken": "one eight zero",
            "value": 180
        },
        "wind_gust": null,
        "wind_speed": {
            "repr": "05",
            "spoken": "five",
            "value": 5
        },
        "wind_variable_direction": [],
        "wx_codes": []
    },
    "icao": "EGLL",
    "speech": "Winds one eight zero at 5kt. Visibility one zero kilometers. Temperature one four degrees Celsius. Dew point one three degrees Celsius. Altimeter one zero two four. Sky clear",
    "summary": "Winds S-180 at 5kt, Vis 10km, Temp 14\u00b0C, Dew 13\u00b0C, Alt 1024 hPa, Sky clear",
    "translations": {
        "altimeter": "1024 hPa (30.24 inHg)",
        "clouds": "Sky clear",
        "dewpoint": "13\u00b0C (55\u00b0F)",
        "remarks": {},
        "temperature": "14\u00b0C (57\u00b0F)",
        "visibility": "10km (6.2sm)",
        "wind": "S-180 at 5kt",
        "wx_codes": ""
    }
}