{
    "created": "2020-05-18",
    "data": {
        "altimeter": {
            "repr": "Q1024",
            "spoken": "one zero two four",
            "value": 1024
        },
        "clouds": [],
        "dewpoint": {
            "repr": "08",
            "spoken": "eight",
            "value": 8
        },
        "flight_rules": "VFR",
        "other": [],
        "raw": "EGLL 180550Z AUTO 26009KT 9999 NCD 11/08 Q1024",
        "remarks": "",
        "remarks_info": {
            "dewpoint_decimal": null,
            "temperature_decimal": null
        },
        "runway_visibility": [],
        "sanitized": "EGLL 180550Z 26009KT 9999 11/08 Q1024 ",
        "station": "EGLL",
        "temperature": {
            "repr": "11",
            "spoken": "one one",
            "value": 11
        },
        "time": {
            "dt": "2020-05-18T05:50:00+00:00",
            "repr": "180550Z"
        },
        "visibility": {
            "repr": "9999",
            "spoken": "nine nine nine nine",
            "value": 9999
        },
        "wind_direction": {
            "repr": "260",
            "spoken": "two six zero",
            "value": 260
        },
        "wind_gust": null,
        "wind_speed": {
            "repr": "09",
            "spoken": "nine",
            "value": 9
        },
        "wind_variable_direction": [],
        "wx_codes": []
    },
    "icao": "EGLL",
    "speech": "Winds two six zero at 9kt. Visibility one zero kilometers. Temperature one one degrees Celsius. Dew point eight degrees Celsius. Altimeter one zero two four. Sky clear",
    "summary": "Winds W-260 at 9kt, Vis 10km, Temp 11\u00b0C, Dew 8\u00b0C, Alt 1024 hPa, Sky clear",
    "translations": {
        "altimeter": "1024 hPa (30.24 inHg)",
        "clouds": "Sky clear",
        "dewpoint": "8\u00b0C (46\u00b0F)",
        "remarks": {},
        "temperature": "11\u00b0C (52\u00b0F)",
        "visibility": "10km (6.2sm)",
        "wind": "W-260 at 9kt",
        "wx_codes": ""
    }
}