{
    "created": "2023-10-17",
    "data": {
        "altimeter": {
            "repr": "Q1016",
            "spoken": "one zero one six",
            "value": 1016
        },
        "clouds": [],
        "density_altitude": -579,
        "dewpoint": {
            "repr": "05",
            "spoken": "five",
            "value": 5
        },
        "flight_rules": "VFR",
        "other": [],
        "pressure_altitude": 1,
        "raw": "EGLL 170550Z AUTO 09011KT 9999 NCD 10/05 Q1016 NOSIG EGLL 170520Z AUTO 09011KT 9999 NCD 10/05 Q1016 NOSIG EGLL 170450Z AUTO 09011KT 9999 NCD 11/05 Q1016 EGLL 170420Z AUTO 09011KT 9999 NCD 11/05 Q1016",
        "relative_humidity": 0.7106976250052686,
        "remarks": "NOSIG EGLL 170520Z AUTO 09011KT 9999 NCD 10/05 Q1016 NOSIG EGLL 170450Z AUTO 09011KT 9999 NCD 11/05 Q1016 EGLL 170420Z AUTO 09011KT 9999 NCD 11/05 Q1016",
        "remarks_info": {
            "codes": [],
            "dewpoint_decimal": null,
            "maximum_temperature_24": null,
            "maximum_temperature_6": null,
            "minimum_temperature_24": null,
            "minimum_temperature_6": null,
            "precip_24_hours": null,
            "precip_36_hours": null,
            "precip_hourly": null,
            "pressure_tendency": null,
            "sea_level_pressure": null,
            "snow_depth": null,
            "sunshine_minutes": null,
            "temperature_decimal": null
        },
        "runway_visibility": [],
        "sanitized": "EGLL 170550Z 09011KT 9999 10/05 Q1016 NOSIG EGLL 170520Z AUTO 09011KT 9999 NCD 10/05 Q1016 NOSIG EGLL 170450Z AUTO 09011KT 9999 NCD 11/05 Q1016 EGLL 170420Z AUTO 09011KT 9999 NCD 11/05 Q1016",
        "station": "EGLL",
        "temperature": {
            "repr": "10",
            "spoken": "one zero",
            "value": 10
        },
        "time": {
            "dt": "2023-10-17T05:50:00+00:00",
            "repr": "170550Z"
        },
        "visibility": {
            "repr": "9999",
            "spoken": "nine nine nine nine",
            "value": 9999
        },
        "wind_direction": {
            "repr": "090",
            "spoken": "zero nine zero",
            "value": 90
        },
        "wind_gust": null,
        "wind_speed": {
            "repr": "11",
            "spoken": "one one",
            "value": 11
        },
        "wind_variable_direction": [],
        "wx_codes": []
    },
    "icao": "EGLL",
    "speech": "Winds zero nine zero at 11 knots. Visibility one zero kilometers. Temperature one zero degrees Celsius. Dew point five degrees Celsius. Altimeter one zero one six. Sky clear",
    "summary": "Winds E-090 at 11kt, Vis 10km, Temp 10\u00b0C, Dew 5\u00b0C, Alt 1016 hPa, Sky clear",
    "translations": {
        "altimeter": "1016 hPa (30.00 inHg)",
        "clouds": "Sky clear",
        "dewpoint": "5\u00b0C (41\u00b0F)",
        "remarks": {},
        "temperature": "10\u00b0C (50\u00b0F)",
        "visibility": "10km (6.2sm)",
        "wind": "E-090 at 11kt",
        "wx_codes": ""
    }
}