{
    "data": {
        "altimeter": {
            "repr": "A2999",
            "spoken": "two nine point nine nine",
            "value": 29.99
        },
        "clouds": [
            {
                "base": 160,
                "direction": null,
                "modifier": null,
                "repr": "SCT160",
                "top": null,
                "type": "SCT"
            },
            {
                "base": 250,
                "direction": null,
                "modifier": null,
                "repr": "BKN250",
                "top": null,
                "type": "BKN"
            }
        ],
        "dewpoint": {
            "repr": "06",
            "spoken": "six",
            "value": 6
        },
        "flight_rules": "VFR",
        "other": [],
        "raw": "KJFK 110351Z 21011KT 10SM SCT160 BKN250 11/06 A2999 RMK AO2 SLP155 T01060061",
        "remarks": "RMK AO2 SLP155 T01060061",
        "remarks_info": {
            "dewpoint_decimal": {
                "repr": "6.1",
                "spoken": "six point one",
                "value": 6.1
            },
            "temperature_decimal": {
                "repr": "10.6",
                "spoken": "one zero point six",
                "value": 10.6
            }
        },
        "runway_visibility": [],
        "sanitized": "KJFK 110351Z 21011KT 10SM SCT160 BKN250 11/06 A2999 RMK AO2 SLP155 T01060061",
        "station": "KJFK",
        "temperature": {
            "repr": "11",
            "spoken": "one one",
            "value": 11
        },
        "time": null,
        "visibility": {
            "repr": "10",
            "spoken": "one zero",
            "value": 10
        },
        "wind_direction": {
            "repr": "210",
            "spoken": "two one zero",
            "value": 210
        },
        "wind_gust": null,
        "wind_speed": {
            "repr": "11",
            "spoken": "one one",
            "value": 11
        },
        "wind_variable_direction": [],
        "wx_codes": []
    },
    "speech": "Winds two one zero at 11kt. Visibility one zero miles. Temperature one one degrees Celsius. Dew point six degrees Celsius. Altimeter two nine point nine nine. Scattered clouds at 16000ft. Broken layer at 25000ft",
    "summary": "Winds SSW-210 at 11kt, Vis 10sm, Temp 11\u00b0C, Dew 6\u00b0C, Alt 29.99 inHg, Scattered clouds at 16000ft, Broken layer at 25000ft",
    "translations": {
        "altimeter": "29.99 inHg (1016 hPa)",
        "clouds": "Scattered clouds at 16000ft, Broken layer at 25000ft - Reported AGL",
        "dewpoint": "6\u00b0C (43\u00b0F)",
        "remarks": {
            "AO2": "Automated with precipitation sensor",
            "SLP155": "Sea level pressure: 1015.5 hPa",
            "T01060061": "Temperature 10.6\u00b0C and dewpoint 6.1\u00b0C"
        },
        "temperature": "11\u00b0C (52\u00b0F)",
        "visibility": "10sm (16.1km)",
        "wind": "SSW-210 at 11kt",
        "wx_codes": ""
    }
}