{
    "created": "2023-10-17",
    "data": {
        "altimeter": {
            "repr": "A2999",
            "spoken": "two nine point nine nine",
            "value": 29.99
        },
        "clouds": [],
        "density_altitude": 49,
        "dewpoint": {
            "repr": "09",
            "spoken": "nine",
            "value": 9
        },
        "flight_rules": "VFR",
        "other": [],
        "pressure_altitude": 26,
        "raw": "KMCO 170553Z 31007KT 10SM CLR 15/09 A2999 RMK AO2 SLP153 T01500094 10183 20150 51010 KMCO 170453Z 29005KT 10SM FEW050 15/09 A2998 RMK AO2 SLP150 T01500094 402220150",
        "relative_humidity": 0.6917262023081956,
        "remarks": "RMK AO2 SLP153 T01500094 10183 20150 51010 KMCO 170453Z 29005KT 10SM FEW050 15/09 A2998 RMK AO2 SLP150 T01500094 402220150",
        "remarks_info": {
            "codes": [
                {
                    "repr": "AO2",
                    "value": "Automated with precipitation sensor"
                },
                {
                    "repr": "AO2",
                    "value": "Automated with precipitation sensor"
                }
            ],
            "dewpoint_decimal": {
                "repr": "0094",
                "spoken": "nine point four",
                "value": 9.4
            },
            "maximum_temperature_24": {
                "repr": "0222",
                "spoken": "two two point two",
                "value": 22.2
            },
            "maximum_temperature_6": {
                "repr": "10183",
                "spoken": "one eight point three",
                "value": 18.3
            },
            "minimum_temperature_24": {
                "repr": "0150",
                "spoken": "one five point zero",
                "value": 15.0
            },
            "minimum_temperature_6": {
                "repr": "20150",
                "spoken": "one five point zero",
                "value": 15.0
            },
            "precip_24_hours": null,
            "precip_36_hours": null,
            "precip_hourly": null,
            "pressure_tendency": {
                "change": 1.0,
                "repr": "51010",
                "tendency": "Increasing, then steady"
            },
            "sea_level_pressure": {
                "repr": "SLP153",
                "spoken": "one zero one five point three",
                "value": 1015.3
            },
            "snow_depth": null,
            "sunshine_minutes": null,
            "temperature_decimal": {
                "repr": "0150",
                "spoken": "one five point zero",
                "value": 15.0
            }
        },
        "runway_visibility": [],
        "sanitized": "KMCO 170553Z 31007KT 10SM 15/09 A2999 RMK AO2 SLP153 T01500094 10183 20150 51010 KMCO 170453Z 29005KT 10SM FEW050 15/09 A2998 RMK AO2 SLP150 T01500094 402220150",
        "station": "KMCO",
        "temperature": {
            "repr": "15",
            "spoken": "one five",
            "value": 15
        },
        "time": {
            "dt": "2023-10-17T05:53:00+00:00",
            "repr": "170553Z"
        },
        "visibility": {
            "repr": "10",
            "spoken": "one zero",
            "value": 10
        },
        "wind_direction": {
            "repr": "310",
            "spoken": "three one zero",
            "value": 310
        },
        "wind_gust": null,
        "wind_speed": {
            "repr": "07",
            "spoken": "seven",
            "value": 7
        },
        "wind_variable_direction": [],
        "wx_codes": []
    },
    "icao": "KMCO",
    "speech": "Winds three one zero at 7 knots. Visibility one zero miles. Temperature one five degrees Celsius. Dew point nine degrees Celsius. Altimeter two nine point nine nine. Sky clear",
    "summary": "Winds NW-310 at 7kt, Vis 10sm, Temp 15\u00b0C, Dew 9\u00b0C, Alt 29.99 inHg, Sky clear",
    "translations": {
        "altimeter": "29.99 inHg (1016 hPa)",
        "clouds": "Sky clear",
        "dewpoint": "9\u00b0C (48\u00b0F)",
        "remarks": {
            "10183": "6-hour maximum temperature 18.3\u00b0C",
            "20150": "6-hour minimum temperature 15.0\u00b0C",
            "401500222": "24-hour temperature: max 22.2 min 15.0",
            "51010": "3-hour pressure difference: +/- 1.0 mb - Increasing, then steady",
            "AO2": "Automated with precipitation sensor",
            "SLP153": "Sea level pressure: 1015.3 hPa",
            "T01500094": "Temperature 15.0\u00b0C and dewpoint 9.4\u00b0C"
        },
        "temperature": "15\u00b0C (59\u00b0F)",
        "visibility": "10sm (16.1km)",
        "wind": "NW-310 at 7kt",
        "wx_codes": ""
    }
}