{
    "created": "2023-10-17",
    "data": {
        "altimeter": {
            "repr": "A3000",
            "spoken": "three zero point zero zero",
            "value": 30.0
        },
        "clouds": [
            {
                "base": 25,
                "modifier": null,
                "repr": "FEW025",
                "top": null,
                "type": "FEW"
            },
            {
                "base": 35,
                "modifier": null,
                "repr": "FEW035",
                "top": null,
                "type": "FEW"
            },
            {
                "base": 50,
                "modifier": null,
                "repr": "FEW050",
                "top": null,
                "type": "FEW"
            }
        ],
        "density_altitude": 1268,
        "dewpoint": {
            "repr": "21",
            "spoken": "two one",
            "value": 21
        },
        "flight_rules": "VFR",
        "other": [],
        "pressure_altitude": -67,
        "raw": "PHNL 170553Z 01003KT 10SM FEW025 FEW035 FEW050 26/21 A3000 RMK AO2 SLP159 T02560206 10317 20256 53020 PHNL 170453Z 04006KT 10SM FEW025 FEW035 FEW050 26/21 A2998 RMK AO2 SLP152 T02610206",
        "relative_humidity": 0.7172284343514518,
        "remarks": "RMK AO2 SLP159 T02560206 10317 20256 53020 PHNL 170453Z 04006KT 10SM FEW025 FEW035 FEW050 26/21 A2998 RMK AO2 SLP152 T02610206",
        "remarks_info": {
            "codes": [
                {
                    "repr": "AO2",
                    "value": "Automated with precipitation sensor"
                },
                {
                    "repr": "AO2",
                    "value": "Automated with precipitation sensor"
                }
            ],
            "dewpoint_decimal": {
                "repr": "0206",
                "spoken": "two zero point six",
                "value": 20.6
            },
            "maximum_temperature_24": null,
            "maximum_temperature_6": {
                "repr": "10317",
                "spoken": "three one point seven",
                "value": 31.7
            },
            "minimum_temperature_24": null,
            "minimum_temperature_6": {
                "repr": "20256",
                "spoken": "two five point six",
                "value": 25.6
            },
            "precip_24_hours": null,
            "precip_36_hours": null,
            "precip_hourly": null,
            "pressure_tendency": {
                "change": 2.0,
                "repr": "53020",
                "tendency": "Decreasing or steady, then increasing"
            },
            "sea_level_pressure": {
                "repr": "SLP159",
                "spoken": "one zero one five point nine",
                "value": 1015.9
            },
            "snow_depth": null,
            "sunshine_minutes": null,
            "temperature_decimal": {
                "repr": "0261",
                "spoken": "two six point one",
                "value": 26.1
            }
        },
        "runway_visibility": [],
        "sanitized": "PHNL 170553Z 01003KT 10SM FEW025 FEW035 FEW050 26/21 A3000 RMK AO2 SLP159 T02560206 10317 20256 53020 PHNL 170453Z 04006KT 10SM FEW025 FEW035 FEW050 26/21 A2998 RMK AO2 SLP152 T02610206",
        "station": "PHNL",
        "temperature": {
            "repr": "26",
            "spoken": "two six",
            "value": 26
        },
        "time": {
            "dt": "2023-10-17T05:53:00+00:00",
            "repr": "170553Z"
        },
        "visibility": {
            "repr": "10",
            "spoken": "one zero",
            "value": 10
        },
        "wind_direction": {
            "repr": "010",
            "spoken": "zero one zero",
            "value": 10
        },
        "wind_gust": null,
        "wind_speed": {
            "repr": "03",
            "spoken": "three",
            "value": 3
        },
        "wind_variable_direction": [],
        "wx_codes": []
    },
    "icao": "PHNL",
    "speech": "Winds zero one zero at 3 knots. Visibility one zero miles. Few clouds at 2500ft. Few clouds at 3500ft. Few clouds at 5000ft. Temperature two six degrees Celsius. Dew point two one degrees Celsius. Altimeter three zero point zero zero",
    "summary": "Winds N-010 at 3kt, Vis 10sm, Temp 26\u00b0C, Dew 21\u00b0C, Alt 30.00 inHg, Few clouds at 2500ft, Few clouds at 3500ft, Few clouds at 5000ft",
    "translations": {
        "altimeter": "30.00 inHg (1016 hPa)",
        "clouds": "Few clouds at 2500ft, Few clouds at 3500ft, Few clouds at 5000ft - Reported AGL",
        "dewpoint": "21\u00b0C (70\u00b0F)",
        "remarks": {
            "10317": "6-hour maximum temperature 31.7\u00b0C",
            "20256": "6-hour minimum temperature 25.6\u00b0C",
            "53020": "3-hour pressure difference: +/- 2.0 mb - Decreasing or steady, then increasing",
            "AO2": "Automated with precipitation sensor",
            "SLP159": "Sea level pressure: 1015.9 hPa",
            "T02610206": "Temperature 26.1\u00b0C and dewpoint 20.6\u00b0C"
        },
        "temperature": "26\u00b0C (79\u00b0F)",
        "visibility": "10sm (16.1km)",
        "wind": "N-010 at 3kt",
        "wx_codes": ""
    }
}