{
    "data": {
        "altimeter": {
            "repr": "1016",
            "spoken": "one zero one six",
            "value": 1016
        },
        "clouds": [],
        "dewpoint": {
            "repr": "15",
            "spoken": "one five",
            "value": 15
        },
        "flight_rules": "VFR",
        "other": [],
        "raw": "EGLL 120020Z AUTO 18004KT 9999 NCD 17/15 Q1016",
        "remarks": "",
        "remarks_info": {
            "dewpoint_decimal": null,
            "temperature_decimal": null
        },
        "runway_visibility": [],
        "sanitized": "EGLL 120020Z AUTO 18004KT 9999 NCD 17/15 Q1016",
        "station": "EGLL",
        "temperature": {
            "repr": "17",
            "spoken": "one seven",
            "value": 17
        },
        "time": "120020Z",
        "visibility": {
            "repr": "9999",
            "spoken": "nine nine nine nine",
            "value": 9999
        },
        "wind_direction": {
            "repr": "180",
            "spoken": "one eight zero",
            "value": 180
        },
        "wind_gust": null,
        "wind_speed": {
            "repr": "04",
            "spoken": "four",
            "value": 4
        },
        "wind_variable_direction": []
    },
    "speech": "Winds one eight zero at 4kt. Visibility one zero kilometers. Temperature one seven degrees Celsius. Dew point one five degrees Celsius. Altimeter one zero one six. Sky clear",
    "station_info": {
        "city": "London",
        "country": "GBR",
        "elevation": 24.4,
        "iata": "LHR",
        "icao": "EGLL",
        "latitude": 51.47916667,
        "longitude": -0.450555556,
        "name": "Heathrow",
        "priority": 6,
        "state": "ENG"
    },
    "summary": "Winds S-180 at 4kt, Vis 10km, Temp 17\u00b0C, Dew 15\u00b0C, Alt 1016 hPa, Sky clear",
    "translations": {
        "altimeter": "1016 hPa (30.0 inHg)",
        "clouds": "Sky clear",
        "dewpoint": "15\u00b0C (59\u00b0F)",
        "other": "",
        "remarks": {},
        "temperature": "17\u00b0C (63\u00b0F)",
        "visibility": "10km (6.2sm)",
        "wind": "S-180 at 4kt"
    }
}